CCSDS_OMM_VERS = 2.0
CREATION_DATE  = 
ORIGINATOR     = 

OBJECT_NAME    = UNKNOWN
OBJECT_ID      = 
CENTER_NAME    = EARTH
REF_FRAME      = TEME
TIME_SYSTEM    = UTC
MEAN_ELEMENT_THEORY = SGP/SGP4

EPOCH          = 2026-02-04T03:43:02.942688
MEAN_MOTION    = 12.64542644
ECCENTRICITY   = .09256333
INCLINATION    = 28.8478
RA_OF_ASC_NODE = 352.8808
ARG_OF_PERICENTER = 287.8893
MEAN_ANOMALY   = 62.2913

EPHEMERIS_TYPE = 0
CLASSIFICATION_TYPE = U
NORAD_CAT_ID   = 270162
ELEMENT_SET_NO = 999
REV_AT_EPOCH   = 28501
BSTAR          = .70926834E-3
MEAN_MOTION_DOT = .815E-5
MEAN_MOTION_DDOT = 0

CCSDS_OMM_VERS = 2.0
CREATION_DATE  = 
ORIGINATOR     = 

OBJECT_NAME    = UNKNOWN
OBJECT_ID      = 
CENTER_NAME    = EARTH
REF_FRAME      = TEME
TIME_SYSTEM    = UTC
MEAN_ELEMENT_THEORY = SGP/SGP4

EPOCH          = 2026-02-05T16:11:34.521504
MEAN_MOTION    = 13.00002612
ECCENTRICITY   = .00248063
INCLINATION    = 90.2445
RA_OF_ASC_NODE = 8.3102
ARG_OF_PERICENTER = 258.3212
MEAN_ANOMALY   = 101.5126

EPHEMERIS_TYPE = 0
CLASSIFICATION_TYPE = U
NORAD_CAT_ID   = 270164
ELEMENT_SET_NO = 999
REV_AT_EPOCH   = 29289
BSTAR          = .33415752E-2
MEAN_MOTION_DOT = .1014E-4
MEAN_MOTION_DDOT = 0

CCSDS_OMM_VERS = 2.0
CREATION_DATE  = 
ORIGINATOR     = 

OBJECT_NAME    = UNKNOWN
OBJECT_ID      = 
CENTER_NAME    = EARTH
REF_FRAME      = TEME
TIME_SYSTEM    = UTC
MEAN_ELEMENT_THEORY = SGP/SGP4

EPOCH          = 2026-02-04T05:08:41.686368
MEAN_MOTION    = 12.95696277
ECCENTRICITY   = .00421421
INCLINATION    = 90.2420
RA_OF_ASC_NODE = 9.2357
ARG_OF_PERICENTER = 184.1265
MEAN_ANOMALY   = 175.9514

EPHEMERIS_TYPE = 0
CLASSIFICATION_TYPE = U
NORAD_CAT_ID   = 270165
ELEMENT_SET_NO = 999
REV_AT_EPOCH   = 29124
BSTAR          = .14032366E-2
MEAN_MOTION_DOT = .406E-5
MEAN_MOTION_DDOT = 0

CCSDS_OMM_VERS = 2.0
CREATION_DATE  = 
ORIGINATOR     = 

OBJECT_NAME    = UNKNOWN
OBJECT_ID      = 
CENTER_NAME    = EARTH
REF_FRAME      = TEME
TIME_SYSTEM    = UTC
MEAN_ELEMENT_THEORY = SGP/SGP4

EPOCH          = 2026-01-31T18:34:17.153760
MEAN_MOTION    = 14.31251598
ECCENTRICITY   = .00061391
INCLINATION    = 98.7483
RA_OF_ASC_NODE = 52.8595
ARG_OF_PERICENTER = 97.0673
MEAN_ANOMALY   = 263.1208

EPHEMERIS_TYPE = 0
CLASSIFICATION_TYPE = U
NORAD_CAT_ID   = 270166
ELEMENT_SET_NO = 999
REV_AT_EPOCH   = 32228
BSTAR          = .1554706E-3
MEAN_MOTION_DOT = .366E-5
MEAN_MOTION_DDOT = 0

CCSDS_OMM_VERS = 2.0
CREATION_DATE  = 
ORIGINATOR     = 

OBJECT_NAME    = UNKNOWN
OBJECT_ID      = 
CENTER_NAME    = EARTH
REF_FRAME      = TEME
TIME_SYSTEM    = UTC
MEAN_ELEMENT_THEORY = SGP/SGP4

EPOCH          = 2026-01-24T12:52:12.330048
MEAN_MOTION    = 14.38950854
ECCENTRICITY   = .00660815
INCLINATION    = 86.1992
RA_OF_ASC_NODE = 322.7683
ARG_OF_PERICENTER = 109.0933
MEAN_ANOMALY   = 251.7437

EPHEMERIS_TYPE = 0
CLASSIFICATION_TYPE = U
NORAD_CAT_ID   = 270168
ELEMENT_SET_NO = 999
REV_AT_EPOCH   = 32122
BSTAR          = .20326007E-2
MEAN_MOTION_DOT = .6448E-4
MEAN_MOTION_DDOT = 0

CCSDS_OMM_VERS = 2.0
CREATION_DATE  = 
ORIGINATOR     = 

OBJECT_NAME    = UNKNOWN
OBJECT_ID      = 
CENTER_NAME    = EARTH
REF_FRAME      = TEME
TIME_SYSTEM    = UTC
MEAN_ELEMENT_THEORY = SGP/SGP4

EPOCH          = 2026-02-04T11:22:12.212544
MEAN_MOTION    = 13.42974400
ECCENTRICITY   = .02069983
INCLINATION    = 83.0009
RA_OF_ASC_NODE = 106.2178
ARG_OF_PERICENTER = 51.4257
MEAN_ANOMALY   = 310.5225

EPHEMERIS_TYPE = 0
CLASSIFICATION_TYPE = U
NORAD_CAT_ID   = 270169
ELEMENT_SET_NO = 999
REV_AT_EPOCH   = 30331
BSTAR          = .99820802E-3
MEAN_MOTION_DOT = .661E-5
MEAN_MOTION_DDOT = 0

CCSDS_OMM_VERS = 2.0
CREATION_DATE  = 
ORIGINATOR     = 

OBJECT_NAME    = UNKNOWN
OBJECT_ID      = 
CENTER_NAME    = EARTH
REF_FRAME      = TEME
TIME_SYSTEM    = UTC
MEAN_ELEMENT_THEORY = SGP/SGP4

EPOCH          = 2026-01-30T03:10:11.416512
MEAN_MOTION    = 14.41662068
ECCENTRICITY   = .00162071
INCLINATION    = 65.0023
RA_OF_ASC_NODE = 182.0963
ARG_OF_PERICENTER = 284.3496
MEAN_ANOMALY   = 75.5794

EPHEMERIS_TYPE = 0
CLASSIFICATION_TYPE = U
NORAD_CAT_ID   = 270170
ELEMENT_SET_NO = 999
REV_AT_EPOCH   = 32382
BSTAR          = .81576944E-3
MEAN_MOTION_DOT = .2566E-4
MEAN_MOTION_DDOT = 0

CCSDS_OMM_VERS = 2.0
CREATION_DATE  = 
ORIGINATOR     = 

OBJECT_NAME    = UNKNOWN
OBJECT_ID      = 
CENTER_NAME    = EARTH
REF_FRAME      = TEME
TIME_SYSTEM    = UTC
MEAN_ELEMENT_THEORY = SGP/SGP4

EPOCH          = 2026-02-05T05:01:11.889696
MEAN_MOTION    = 14.45696735
ECCENTRICITY   = .00240504
INCLINATION    = 86.3745
RA_OF_ASC_NODE = 18.2886
ARG_OF_PERICENTER = 340.5804
MEAN_ANOMALY   = 19.4479

EPHEMERIS_TYPE = 0
CLASSIFICATION_TYPE = U
NORAD_CAT_ID   = 270172
ELEMENT_SET_NO = 999
REV_AT_EPOCH   = 32522
BSTAR          = .83681231E-3
MEAN_MOTION_DOT = .299E-4
MEAN_MOTION_DDOT = 0

CCSDS_OMM_VERS = 2.0
CREATION_DATE  = 
ORIGINATOR     = 

OBJECT_NAME    = UNKNOWN
OBJECT_ID      = 
CENTER_NAME    = EARTH
REF_FRAME      = TEME
TIME_SYSTEM    = UTC
MEAN_ELEMENT_THEORY = SGP/SGP4

EPOCH          = 2026-02-17T09:51:20.421792
MEAN_MOTION    = 14.85563005
ECCENTRICITY   = .00028952
INCLINATION    = 86.6027
RA_OF_ASC_NODE = 37.4942
ARG_OF_PERICENTER = 105.6564
MEAN_ANOMALY   = 254.4980

EPHEMERIS_TYPE = 0
CLASSIFICATION_TYPE = U
NORAD_CAT_ID   = 270173
ELEMENT_SET_NO = 999
REV_AT_EPOCH   = 33395
BSTAR          = .45640098E-3
MEAN_MOTION_DOT = .397E-4
MEAN_MOTION_DDOT = 0

CCSDS_OMM_VERS = 2.0
CREATION_DATE  = 
ORIGINATOR     = 

OBJECT_NAME    = UNKNOWN
OBJECT_ID      = 
CENTER_NAME    = EARTH
REF_FRAME      = TEME
TIME_SYSTEM    = UTC
MEAN_ELEMENT_THEORY = SGP/SGP4

EPOCH          = 2026-01-31T04:40:23.003616
MEAN_MOTION    = 11.49751159
ECCENTRICITY   = .09518998
INCLINATION    = 63.3958
RA_OF_ASC_NODE = 3.3199
ARG_OF_PERICENTER = 317.7394
MEAN_ANOMALY   = 35.3825

EPHEMERIS_TYPE = 0
CLASSIFICATION_TYPE = U
NORAD_CAT_ID   = 270174
ELEMENT_SET_NO = 999
REV_AT_EPOCH   = 25963
BSTAR          = -.24842966E-3
MEAN_MOTION_DOT = -.85E-6
MEAN_MOTION_DDOT = 0

CCSDS_OMM_VERS = 2.0
CREATION_DATE  = 
ORIGINATOR     = 

OBJECT_NAME    = UNKNOWN
OBJECT_ID      = 
CENTER_NAME    = EARTH
REF_FRAME      = TEME
TIME_SYSTEM    = UTC
MEAN_ELEMENT_THEORY = SGP/SGP4

EPOCH          = 2026-01-29T22:44:33.578304
MEAN_MOTION    = 12.21158299
ECCENTRICITY   = .08315807
INCLINATION    = 83.3218
RA_OF_ASC_NODE = 113.0960
ARG_OF_PERICENTER = 235.1038
MEAN_ANOMALY   = 116.9142

EPHEMERIS_TYPE = 0
CLASSIFICATION_TYPE = U
NORAD_CAT_ID   = 270175
ELEMENT_SET_NO = 999
REV_AT_EPOCH   = 27482
BSTAR          = .78615219E-2
MEAN_MOTION_DOT = .2518E-4
MEAN_MOTION_DDOT = 0

CCSDS_OMM_VERS = 2.0
CREATION_DATE  = 
ORIGINATOR     = 

OBJECT_NAME    = UNKNOWN
OBJECT_ID      = 
CENTER_NAME    = EARTH
REF_FRAME      = TEME
TIME_SYSTEM    = UTC
MEAN_ELEMENT_THEORY = SGP/SGP4

EPOCH          = 2026-02-04T14:01:12.720000
MEAN_MOTION    = 13.04470863
ECCENTRICITY   = .00285423
INCLINATION    = 90.2282
RA_OF_ASC_NODE = 354.0988
ARG_OF_PERICENTER = 195.7680
MEAN_ANOMALY   = 164.2559

EPHEMERIS_TYPE = 0
CLASSIFICATION_TYPE = U
NORAD_CAT_ID   = 270176
ELEMENT_SET_NO = 999
REV_AT_EPOCH   = 29349
BSTAR          = .543508E-3
MEAN_MOTION_DOT = .182E-5
MEAN_MOTION_DDOT = 0

CCSDS_OMM_VERS = 2.0
CREATION_DATE  = 
ORIGINATOR     = 

OBJECT_NAME    = UNKNOWN
OBJECT_ID      = 
CENTER_NAME    = EARTH
REF_FRAME      = TEME
TIME_SYSTEM    = UTC
MEAN_ELEMENT_THEORY = SGP/SGP4

EPOCH          = 2026-02-04T05:51:13.403232
MEAN_MOTION    = 14.32160460
ECCENTRICITY   = .0019625
INCLINATION    = 98.6894
RA_OF_ASC_NODE = 38.7003
ARG_OF_PERICENTER = 182.8690
MEAN_ANOMALY   = 177.2384

EPHEMERIS_TYPE = 0
CLASSIFICATION_TYPE = U
NORAD_CAT_ID   = 270178
ELEMENT_SET_NO = 999
REV_AT_EPOCH   = 32209
BSTAR          = .17100266E-3
MEAN_MOTION_DOT = .416E-5
MEAN_MOTION_DDOT = 0

CCSDS_OMM_VERS = 2.0
CREATION_DATE  = 
ORIGINATOR     = 

OBJECT_NAME    = UNKNOWN
OBJECT_ID      = 
CENTER_NAME    = EARTH
REF_FRAME      = TEME
TIME_SYSTEM    = UTC
MEAN_ELEMENT_THEORY = SGP/SGP4

EPOCH          = 2026-01-31T18:03:06.235200
MEAN_MOTION    = 14.38481376
ECCENTRICITY   = .00316725
INCLINATION    = 98.6247
RA_OF_ASC_NODE = 37.4971
ARG_OF_PERICENTER = 217.8411
MEAN_ANOMALY   = 142.0550

EPHEMERIS_TYPE = 0
CLASSIFICATION_TYPE = U
NORAD_CAT_ID   = 270179
ELEMENT_SET_NO = 999
REV_AT_EPOCH   = 32279
BSTAR          = .18516537E-3
MEAN_MOTION_DOT = .524E-5
MEAN_MOTION_DDOT = 0

CCSDS_OMM_VERS = 2.0
CREATION_DATE  = 
ORIGINATOR     = 

OBJECT_NAME    = UNKNOWN
OBJECT_ID      = 
CENTER_NAME    = EARTH
REF_FRAME      = TEME
TIME_SYSTEM    = UTC
MEAN_ELEMENT_THEORY = SGP/SGP4

EPOCH          = 2026-02-05T15:06:22.341600
MEAN_MOTION    = 12.92548875
ECCENTRICITY   = .07004972
INCLINATION    = 72.9890
RA_OF_ASC_NODE = 358.4581
ARG_OF_PERICENTER = 286.6326
MEAN_ANOMALY   = 65.8997

EPHEMERIS_TYPE = 0
CLASSIFICATION_TYPE = U
NORAD_CAT_ID   = 270181
ELEMENT_SET_NO = 999
REV_AT_EPOCH   = 29091
BSTAR          = .38182676E-2
MEAN_MOTION_DOT = .313E-4
MEAN_MOTION_DDOT = 0

CCSDS_OMM_VERS = 2.0
CREATION_DATE  = 
ORIGINATOR     = 

OBJECT_NAME    = UNKNOWN
OBJECT_ID      = 
CENTER_NAME    = EARTH
REF_FRAME      = TEME
TIME_SYSTEM    = UTC
MEAN_ELEMENT_THEORY = SGP/SGP4

EPOCH          = 2026-02-03T15:26:49.926624
MEAN_MOTION    = 13.01414539
ECCENTRICITY   = .00364441
INCLINATION    = 90.2437
RA_OF_ASC_NODE = 356.6397
ARG_OF_PERICENTER = 241.2153
MEAN_ANOMALY   = 118.5308

EPHEMERIS_TYPE = 0
CLASSIFICATION_TYPE = U
NORAD_CAT_ID   = 270183
ELEMENT_SET_NO = 999
REV_AT_EPOCH   = 29294
BSTAR          = .26211251E-2
MEAN_MOTION_DOT = .814E-5
MEAN_MOTION_DDOT = 0

